25943,GLOBALSTAR M057,1999,117.57,-1.0,-,52.0,Inactive,0,LEO,Kazakhstan,Globalstar,Unknown,Unknown,Soyuz,1 25943U 99058A   23245.84020085 -.00000124  00000+0 -28056-3 0  9999,2 25943  51.9999  42.2992 0003429 105.6986 254.4242 12.24771020 86876,12.2477102,0.0003429,LEO
25944,GLOBALSTAR M059,1999,120.0,-1.0,-,52.0,Inactive,0,LEO,Kazakhstan,Globalstar,Unknown,Unknown,Soyuz,1 25944U 99058B   23245.86499104 -.00000122  00000+0 -44328-3 0  9992,2 25944  52.0007 174.5754 0000672  64.8491 337.3661 11.99952451495610,11.99952451,6.72e-05,LEO
25945,GLOBALSTAR M056,1999,119.53,-1.0,-,51.99,Inactive,0,LEO,Kazakhstan,Globalstar,Unknown,Unknown,Soyuz,1 25945U 99058C   23245.90144444 -.00000102  00000+0 -16985-3 0  9998,2 25945  51.9949 193.2226 0001110 337.3093  60.0384 12.04767809 83927,12.04767809,0.000111,LEO
25946,GLOBALSTAR M031,1999,118.42,-1.0,-,52.0,Inactive,0,LEO,Kazakhstan,Globalstar,Unknown,Unknown,Soyuz,1 25946U 99058D   23245.92722109 -.00000129  00000+0 -38882-3 0  9990,2 25946  51.9952 124.5520 0001297 318.9615  52.8449 12.15995144 85073,12.15995144,0.0001297,LEO
25961,GLOBALSTAR M039,1999,114.08,-1.0,-,51.98,Inactive,0,LEO,Kazakhstan,Globalstar,Unknown,Unknown,Soyuz,1 25961U 99062A   23245.83413732 -.00000071  00000+0  18168-3 0  9991,2 25961  51.9839  98.5982 0002941 356.6245   3.4601 12.62269213 97709,12.62269213,0.0002941,LEO
25962,GLOBALSTAR M034,1999,122.09,-1.0,-,51.99,Inactive,0,LEO,Kazakhstan,Globalstar,Unknown,Unknown,Soyuz,1 25962U 99062B   23245.81460559 -.00000073  00000+0  12027-3 0  9999,2 25962  51.9853 269.7321 0014092 247.0507 283.7375 11.79414608 61292,11.79414608,0.0014092,LEO
25963,GLOBALSTAR M029,1999,120.01,-1.0,-,51.98,Inactive,0,LEO,Kazakhstan,Globalstar,Unknown,Unknown,Soyuz,1 25963U 99062C   23245.82217861 -.00000081  00000+0  66428-4 0  9991,2 25963  51.9807  63.2829 0001785 281.9258  91.0945 11.99867049 90699,11.99867049,0.0001785,LEO
25964,GLOBALSTAR M061,1999,122.37,-1.0,-,51.98,Inactive,0,LEO,Kazakhstan,Globalstar,Unknown,Unknown,Soyuz,1 25964U 99062D   23245.84983785 -.00000088  00000+0 -11941-3 0  9996,2 25964  51.9789  85.0164 0005787 169.7025 291.7456 11.76749334 44263,11.76749334,0.0005787,LEO
